CCSDS_OMM_VERS = 2.0
CREATION_DATE  = 
ORIGINATOR     = 

OBJECT_NAME    = ATLAS CENTAUR R/B
OBJECT_ID      = 1972-065B
CENTER_NAME    = EARTH
REF_FRAME      = TEME
TIME_SYSTEM    = UTC
MEAN_ELEMENT_THEORY = SGP/SGP4

EPOCH          = 2026-03-31T22:08:09.104640
MEAN_MOTION    = 14.77752121
ECCENTRICITY   = .00336649
INCLINATION    = 35.0007
RA_OF_ASC_NODE = 175.4540
ARG_OF_PERICENTER = 198.4007
MEAN_ANOMALY   = 161.5477

EPHEMERIS_TYPE = 0
CLASSIFICATION_TYPE = U
NORAD_CAT_ID   = 6155
ELEMENT_SET_NO = 999
REV_AT_EPOCH   = 84455
BSTAR          = .23785019E-3
MEAN_MOTION_DOT = .1728E-4
MEAN_MOTION_DDOT = 0

CCSDS_OMM_VERS = 2.0
CREATION_DATE  = 
ORIGINATOR     = 

OBJECT_NAME    = SL-8 R/B
OBJECT_ID      = 1975-112B
CENTER_NAME    = EARTH
REF_FRAME      = TEME
TIME_SYSTEM    = UTC
MEAN_ELEMENT_THEORY = SGP/SGP4

EPOCH          = 2026-04-01T02:38:01.689792
MEAN_MOTION    = 14.38216594
ECCENTRICITY   = .0014617
INCLINATION    = 74.0626
RA_OF_ASC_NODE = 337.6728
ARG_OF_PERICENTER = 61.7232
MEAN_ANOMALY   = 298.5395

EPHEMERIS_TYPE = 0
CLASSIFICATION_TYPE = U
NORAD_CAT_ID   = 8459
ELEMENT_SET_NO = 999
REV_AT_EPOCH   = 63509
BSTAR          = .10066E-3
MEAN_MOTION_DOT = .28E-5
MEAN_MOTION_DDOT = 0

CCSDS_OMM_VERS = 2.0
CREATION_DATE  = 
ORIGINATOR     = 

OBJECT_NAME    = SL-3 R/B
OBJECT_ID      = 1977-057B
CENTER_NAME    = EARTH
REF_FRAME      = TEME
TIME_SYSTEM    = UTC
MEAN_ELEMENT_THEORY = SGP/SGP4

EPOCH          = 2026-04-01T04:21:07.310304
MEAN_MOTION    = 15.46147760
ECCENTRICITY   = .0006958
INCLINATION    = 97.5795
RA_OF_ASC_NODE = 264.1073
ARG_OF_PERICENTER = 193.0531
MEAN_ANOMALY   = 167.0539

EPHEMERIS_TYPE = 0
CLASSIFICATION_TYPE = U
NORAD_CAT_ID   = 10114
ELEMENT_SET_NO = 999
REV_AT_EPOCH   = 67180
BSTAR          = .28978E-3
MEAN_MOTION_DOT = .14132E-3
MEAN_MOTION_DDOT = 0

CCSDS_OMM_VERS = 2.0
CREATION_DATE  = 
ORIGINATOR     = 

OBJECT_NAME    = SEASAT 1
OBJECT_ID      = 1978-064A
CENTER_NAME    = EARTH
REF_FRAME      = TEME
TIME_SYSTEM    = UTC
MEAN_ELEMENT_THEORY = SGP/SGP4

EPOCH          = 2026-04-01T04:25:37.388928
MEAN_MOTION    = 14.46178850
ECCENTRICITY   = .000269
INCLINATION    = 108.0070
RA_OF_ASC_NODE = 172.6982
ARG_OF_PERICENTER = 274.6274
MEAN_ANOMALY   = 85.4565

EPHEMERIS_TYPE = 0
CLASSIFICATION_TYPE = U
NORAD_CAT_ID   = 10967
ELEMENT_SET_NO = 999
REV_AT_EPOCH   = 50976
BSTAR          = .12049E-3
MEAN_MOTION_DOT = .294E-5
MEAN_MOTION_DDOT = 0

CCSDS_OMM_VERS = 2.0
CREATION_DATE  = 
ORIGINATOR     = 

OBJECT_NAME    = SL-14 R/B
OBJECT_ID      = 1979-011B
CENTER_NAME    = EARTH
REF_FRAME      = TEME
TIME_SYSTEM    = UTC
MEAN_ELEMENT_THEORY = SGP/SGP4

EPOCH          = 2026-04-01T01:10:05.901888
MEAN_MOTION    = 14.91938565
ECCENTRICITY   = .0015636
INCLINATION    = 82.5214
RA_OF_ASC_NODE = 75.3474
ARG_OF_PERICENTER = 348.7501
MEAN_ANOMALY   = 11.3367

EPHEMERIS_TYPE = 0
CLASSIFICATION_TYPE = U
NORAD_CAT_ID   = 11267
ELEMENT_SET_NO = 999
REV_AT_EPOCH   = 53211
BSTAR          = .89324E-4
MEAN_MOTION_DOT = .931E-5
MEAN_MOTION_DDOT = 0

CCSDS_OMM_VERS = 2.0
CREATION_DATE  = 
ORIGINATOR     = 

OBJECT_NAME    = SL-8 R/B
OBJECT_ID      = 1979-089B
CENTER_NAME    = EARTH
REF_FRAME      = TEME
TIME_SYSTEM    = UTC
MEAN_ELEMENT_THEORY = SGP/SGP4

EPOCH          = 2026-04-01T05:13:42.691008
MEAN_MOTION    = 14.42365273
ECCENTRICITY   = .0016631
INCLINATION    = 74.0695
RA_OF_ASC_NODE = 49.3379
ARG_OF_PERICENTER = 218.9996
MEAN_ANOMALY   = 140.9963

EPHEMERIS_TYPE = 0
CLASSIFICATION_TYPE = U
NORAD_CAT_ID   = 11574
ELEMENT_SET_NO = 999
REV_AT_EPOCH   = 43935
BSTAR          = .11624E-3
MEAN_MOTION_DOT = .358E-5
MEAN_MOTION_DDOT = 0

CCSDS_OMM_VERS = 2.0
CREATION_DATE  = 
ORIGINATOR     = 

OBJECT_NAME    = SL-14 R/B
OBJECT_ID      = 1980-005B
CENTER_NAME    = EARTH
REF_FRAME      = TEME
TIME_SYSTEM    = UTC
MEAN_ELEMENT_THEORY = SGP/SGP4

EPOCH          = 2026-04-01T05:03:21.214944
MEAN_MOTION    = 14.90956128
ECCENTRICITY   = .0017249
INCLINATION    = 82.5109
RA_OF_ASC_NODE = 285.8675
ARG_OF_PERICENTER = 88.5351
MEAN_ANOMALY   = 271.7844

EPHEMERIS_TYPE = 0
CLASSIFICATION_TYPE = U
NORAD_CAT_ID   = 11672
ELEMENT_SET_NO = 999
REV_AT_EPOCH   = 47984
BSTAR          = .62072E-4
MEAN_MOTION_DOT = .64E-5
MEAN_MOTION_DDOT = 0

CCSDS_OMM_VERS = 2.0
CREATION_DATE  = 
ORIGINATOR     = 

OBJECT_NAME    = SL-8 R/B
OBJECT_ID      = 1981-003B
CENTER_NAME    = EARTH
REF_FRAME      = TEME
TIME_SYSTEM    = UTC
MEAN_ELEMENT_THEORY = SGP/SGP4

EPOCH          = 2026-03-31T23:32:25.852128
MEAN_MOTION    = 15.11985247
ECCENTRICITY   = .0260486
INCLINATION    = 82.9324
RA_OF_ASC_NODE = 269.3943
ARG_OF_PERICENTER = 101.1533
MEAN_ANOMALY   = 261.9103

EPHEMERIS_TYPE = 0
CLASSIFICATION_TYPE = U
NORAD_CAT_ID   = 12139
ELEMENT_SET_NO = 999
REV_AT_EPOCH   = 31804
BSTAR          = .6819E-3
MEAN_MOTION_DOT = .27339E-3
MEAN_MOTION_DDOT = 0

CCSDS_OMM_VERS = 2.0
CREATION_DATE  = 
ORIGINATOR     = 

OBJECT_NAME    = SL-3 R/B
OBJECT_ID      = 1981-046B
CENTER_NAME    = EARTH
REF_FRAME      = TEME
TIME_SYSTEM    = UTC
MEAN_ELEMENT_THEORY = SGP/SGP4

EPOCH          = 2026-04-01T04:02:01.660992
MEAN_MOTION    = 15.42554276
ECCENTRICITY   = .0018127
INCLINATION    = 81.2280
RA_OF_ASC_NODE = 262.7354
ARG_OF_PERICENTER = 302.3757
MEAN_ANOMALY   = 57.5732

EPHEMERIS_TYPE = 0
CLASSIFICATION_TYPE = U
NORAD_CAT_ID   = 12465
ELEMENT_SET_NO = 999
REV_AT_EPOCH   = 44189
BSTAR          = .2813E-3
MEAN_MOTION_DOT = .12318E-3
MEAN_MOTION_DDOT = 0

CCSDS_OMM_VERS = 2.0
CREATION_DATE  = 
ORIGINATOR     = 

OBJECT_NAME    = SL-3 R/B
OBJECT_ID      = 1981-103B
CENTER_NAME    = EARTH
REF_FRAME      = TEME
TIME_SYSTEM    = UTC
MEAN_ELEMENT_THEORY = SGP/SGP4

EPOCH          = 2026-04-01T04:45:10.846080
MEAN_MOTION    = 15.21646308
ECCENTRICITY   = .0012975
INCLINATION    = 81.1615
RA_OF_ASC_NODE = 187.0283
ARG_OF_PERICENTER = 206.3203
MEAN_ANOMALY   = 153.7371

EPHEMERIS_TYPE = 0
CLASSIFICATION_TYPE = U
NORAD_CAT_ID   = 12904
ELEMENT_SET_NO = 999
REV_AT_EPOCH   = 97665
BSTAR          = .26281E-3
MEAN_MOTION_DOT = .5975E-4
MEAN_MOTION_DDOT = 0

CCSDS_OMM_VERS = 2.0
CREATION_DATE  = 
ORIGINATOR     = 

OBJECT_NAME    = SL-3 R/B
OBJECT_ID      = 1982-013B
CENTER_NAME    = EARTH
REF_FRAME      = TEME
TIME_SYSTEM    = UTC
MEAN_ELEMENT_THEORY = SGP/SGP4

EPOCH          = 2026-04-01T04:43:53.671008
MEAN_MOTION    = 15.22216857
ECCENTRICITY   = .00236
INCLINATION    = 81.1728
RA_OF_ASC_NODE = 134.3873
ARG_OF_PERICENTER = 103.8765
MEAN_ANOMALY   = 256.5095

EPHEMERIS_TYPE = 0
CLASSIFICATION_TYPE = U
NORAD_CAT_ID   = 13068
ELEMENT_SET_NO = 999
REV_AT_EPOCH   = 40777
BSTAR          = .19345E-3
MEAN_MOTION_DOT = .4504E-4
MEAN_MOTION_DDOT = 0

CCSDS_OMM_VERS = 2.0
CREATION_DATE  = 
ORIGINATOR     = 

OBJECT_NAME    = SL-3 R/B
OBJECT_ID      = 1982-039B
CENTER_NAME    = EARTH
REF_FRAME      = TEME
TIME_SYSTEM    = UTC
MEAN_ELEMENT_THEORY = SGP/SGP4

EPOCH          = 2026-04-01T04:26:17.769696
MEAN_MOTION    = 15.10208562
ECCENTRICITY   = .0028396
INCLINATION    = 81.1566
RA_OF_ASC_NODE = 190.0230
ARG_OF_PERICENTER = 249.7648
MEAN_ANOMALY   = 110.0524

EPHEMERIS_TYPE = 0
CLASSIFICATION_TYPE = U
NORAD_CAT_ID   = 13154
ELEMENT_SET_NO = 999
REV_AT_EPOCH   = 38503
BSTAR          = .16742E-3
MEAN_MOTION_DOT = .2783E-4
MEAN_MOTION_DDOT = 0

