ATLAS CENTAUR R/B       
1 06155U 72065B   26090.92232759  .00001728  00000+0  23785-3 0  9998
2 06155  35.0007 175.4540 0033665 198.4007 161.5477 14.77752120844555
SL-8 R/B                
1 08459U 75112B   26091.10974178  .00000280  00000+0  10066-3 0  9992
2 08459  74.0626 337.6728 0014617  61.7232 298.5395 14.38216594635096
SL-3 R/B                
1 10114U 77057B   26091.18133461  .00014132  00000+0  28978-3 0  9995
2 10114  97.5795 264.1073 0006958 193.0531 167.0539 15.46147760671808
SEASAT 1                
1 10967U 78064A   26091.18446052  .00000294  00000+0  12049-3 0  9999
2 10967 108.0070 172.6982 0002690 274.6274  85.4565 14.46178850509769
SL-14 R/B               
1 11267U 79011B   26091.04867942  .00000931  00000+0  89324-4 0  9995
2 11267  82.5214  75.3474 0015636 348.7501  11.3367 14.91938565532114
SL-8 R/B                
1 11574U 79089B   26091.21785522  .00000358  00000+0  11624-3 0  9993
2 11574  74.0695  49.3379 0016631 218.9996 140.9963 14.42365273439350
SL-14 R/B               
1 11672U 80005B   26091.21066221  .00000640  00000+0  62072-4 0  9998
2 11672  82.5109 285.8675 0017249  88.5351 271.7844 14.90956128479848
SL-8 R/B                
1 12139U 81003B   26090.98085477  .00027339  00000+0  68190-3 0  9993
2 12139  82.9324 269.3943 0260486 101.1533 261.9103 15.11985247318043
SL-3 R/B                
1 12465U 81046B   26091.16807478  .00012318  00000+0  28130-3 0  9997
2 12465  81.2280 262.7354 0018127 302.3757  57.5732 15.42554276441892
SL-3 R/B                
1 12904U 81103B   26091.19804220  .00005975  00000+0  26281-3 0  9990
2 12904  81.1615 187.0283 0012975 206.3203 153.7371 15.21646308976655
SL-3 R/B                
1 13068U 82013B   26091.19714897  .00004504  00000+0  19345-3 0  9993
2 13068  81.1728 134.3873 0023600 103.8765 256.5095 15.22216857407773
SL-3 R/B                
1 13154U 82039B   26091.18492789  .00002783  00000+0  16742-3 0  9994
2 13154  81.1566 190.0230 0028396 249.7648 110.0524 15.10208562385038
